{
  "norad_id": 62230,
  "name": "STARLINK-11481 [DTC]",
  "history": [
    {
      "epoch": "2026-03-28T18:30:04.070016Z",
      "apogee_km": 360.2815477627428,
      "perigee_km": 358.1133387922073,
      "latitude_deg": 2.6760545895881167e-05,
      "longitude_deg": -96.15538877178257,
      "height_km": 360.44017641597816,
      "semi_major_axis_km": 6737.334443277475,
      "eccentricity": 0.00016091,
      "inclination_deg": 53.1582,
      "raan_deg": 7.5481,
      "arg_perigee_deg": 107.7112,
      "mean_anomaly_deg": 252.4082,
      "mean_motion_rev_day": 15.69894986
    },
    {
      "epoch": "2026-03-29T03:40:10.641216Z",
      "apogee_km": 360.82016907760226,
      "perigee_km": 358.27601918605706,
      "latitude_deg": -4.497938627995979e-05,
      "longitude_deg": 124.0567411806702,
      "height_km": 359.4963110615089,
      "semi_major_axis_km": 6737.685094131829,
      "eccentricity": 0.0001888,
      "inclination_deg": 53.1575,
      "raan_deg": 5.6642,
      "arg_perigee_deg": 40.6559,
      "mean_anomaly_deg": 319.4599,
      "mean_motion_rev_day": 15.69772434
    }
  ]
}